SWIFT                   
1 28485U 04047A   26184.97034998  .00070231  00000+0  54591-3 0  9991
2 28485  20.5532  55.2849 0000844 198.0974 161.9442 15.70001988189502
