SAVED_AT,EPOCH,OBJECT_NAME,OBJECT_ID,MEAN_MOTION,ECCENTRICITY,INCLINATION,RA_OF_ASC_NODE,ARG_OF_PERICENTER,MEAN_ANOMALY,EPHEMERIS_TYPE,CLASSIFICATION_TYPE,NORAD_CAT_ID,ELEMENT_SET_NO,REV_AT_EPOCH,BSTAR,MEAN_MOTION_DOT,MEAN_MOTION_DDOT
2026-07-04T17:00:11.724870,2026-07-03T23:17:18.238272,SWIFT,2004-047A,15.70001988,8.442e-05,20.5532,55.2849,198.0974,161.9442,0.0,U,28485.0,999.0,18950.0,0.00054591173,0.00070231,0.0
